STARLINK-36075          
1 66905U 25283AD  26068.26290423  .00009507  00000+0  33325-3 0  9995
2 66905  53.1623  26.5141 0001156 128.6218 231.4886 15.30145175 15772
GLOBAL-34               
1 68098U 26043A   26068.47466435  .00014018  00000+0  45822-3 0  9994
2 68098  42.0215  76.7399 0006884 289.2632  70.7460 15.31488019   538
